{
  "type": "FeatureCollection",
  "features": [
    {
      "type": "Feature",
      "properties": {
        "norad_id": 66052,
        "name": "HRC MONOBLOCK CAMERA",
        "group": "stations",
        "lat": -50.217212138291394,
        "lon": 54.971810416329,
        "alt_km": 410.56320082810726,
        "timestamp": "2025-12-08T10:52:01.736837+00:00",
        "meta_object_name": "HRC MONOBLOCK CAMERA",
        "meta_object_id": "1998-067XR",
        "meta_epoch": "2025-12-07T18:19:18.655104",
        "meta_mean_motion": 15.53649665,
        "meta_eccentricity": 0.000398,
        "meta_inclination": 51.6286,
        "meta_ra_of_asc_node": 166.3103,
        "meta_arg_of_pericenter": 163.9442,
        "meta_mean_anomaly": 196.1676,
        "meta_ephemeris_type": 0,
        "meta_classification_type": "U",
        "meta_norad_cat_id": 66052,
        "meta_element_set_no": 999,
        "meta_rev_at_epoch": 806,
        "meta_bstar": 0.00070532392,
        "meta_mean_motion_dot": 0.0004568,
        "meta_mean_motion_ddot": 0,
        "tle_line1": "1 66052U 98067XR  25341.76341036  .00045680  00000+0  70532-3 0  9996",
        "tle_line2": "2 66052  51.6286 166.3103 0003980 163.9442 196.1676 15.53649665  8068"
      },
      "geometry": {
        "type": "Point",
        "coordinates": [
          54.971810416329,
          -50.217212138291394
        ]
      }
    },
    {
      "type": "Feature",
      "properties": {
        "norad_id": 66174,
        "name": "HTV-X1",
        "group": "stations",
        "lat": -30.30833871728472,
        "lon": 11.293578474942338,
        "alt_km": 419.7916212033979,
        "timestamp": "2025-12-08T10:52:01.736847+00:00",
        "meta_object_name": "HTV-X1",
        "meta_object_id": "2025-241A",
        "meta_epoch": "2025-12-07T21:32:16.385568",
        "meta_mean_motion": 15.49404055,
        "meta_eccentricity": 0.0003425,
        "meta_inclination": 51.6302,
        "meta_ra_of_asc_node": 166.4547,
        "meta_arg_of_pericenter": 217.7386,
        "meta_mean_anomaly": 142.3363,
        "meta_ephemeris_type": 0,
        "meta_classification_type": "U",
        "meta_norad_cat_id": 66174,
        "meta_element_set_no": 999,
        "meta_rev_at_epoch": 51,
        "meta_bstar": 0.00022339025,
        "meta_mean_motion_dot": 0.00012051,
        "meta_mean_motion_ddot": 0,
        "tle_line1": "1 66174U 25241A   25341.89741187  .00012051  00000+0  22339-3 0  9998",
        "tle_line2": "2 66174  51.6302 166.4547 0003425 217.7386 142.3363 15.49404055   519"
      },
      "geometry": {
        "type": "Point",
        "coordinates": [
          11.293578474942338,
          -30.30833871728472
        ]
      }
    },
    {
      "type": "Feature",
      "properties": {
        "norad_id": 66515,
        "name": "SZ-21 MODULE",
        "group": "stations",
        "lat": 17.15868395143217,
        "lon": 62.64860056290358,
        "alt_km": 382.080230462333,
        "timestamp": "2025-12-08T10:52:01.736857+00:00",
        "meta_object_name": "SZ-21 MODULE",
        "meta_object_id": "2025-246C",
        "meta_epoch": "2025-12-07T20:56:43.117728",
        "meta_mean_motion": 15.62136924,
        "meta_eccentricity": 0.00062043,
        "meta_inclination": 41.4776,
        "meta_ra_of_asc_node": 45.7288,
        "meta_arg_of_pericenter": 233.3043,
        "meta_mean_anomaly": 126.7226,
        "meta_ephemeris_type": 0,
        "meta_classification_type": "U",
        "meta_norad_cat_id": 66515,
        "meta_element_set_no": 999,
        "meta_rev_at_epoch": 368,
        "meta_bstar": 0.00033745404,
        "meta_mean_motion_dot": 0.00030277,
        "meta_mean_motion_ddot": 0,
        "tle_line1": "1 66515U 25246C   25341.87272127  .00030277  00000+0  33745-3 0  9996",
        "tle_line2": "2 66515  41.4776  45.7288 0006204 233.3043 126.7226 15.62136924  3680"
      },
      "geometry": {
        "type": "Point",
        "coordinates": [
          62.64860056290358,
          17.15868395143217
        ]
      }
    },
    {
      "type": "Feature",
      "properties": {
        "norad_id": 66645,
        "name": "SHENZHOU-22",
        "group": "stations",
        "lat": 7.153685227544575,
        "lon": -145.44342694434096,
        "alt_km": 395.7110538345487,
        "timestamp": "2025-12-08T10:52:01.736867+00:00",
        "meta_object_name": "SHENZHOU-22",
        "meta_object_id": "2025-272A",
        "meta_epoch": "2025-12-07T23:22:56.643744",
        "meta_mean_motion": 15.58863749,
        "meta_eccentricity": 0.00092535,
        "meta_inclination": 41.4683,
        "meta_ra_of_asc_node": 45.6321,
        "meta_arg_of_pericenter": 352.4121,
        "meta_mean_anomaly": 7.6575,
        "meta_ephemeris_type": 0,
        "meta_classification_type": "U",
        "meta_norad_cat_id": 66645,
        "meta_element_set_no": 999,
        "meta_rev_at_epoch": 26300,
        "meta_bstar": 0.00029193568,
        "meta_mean_motion_dot": 0.00023028,
        "meta_mean_motion_ddot": 0,
        "tle_line1": "1 66645U 25272A   25341.97426671  .00023028  00000+0  29194-3 0  9994",
        "tle_line2": "2 66645  41.4683  45.6321 0009253 352.4121   7.6575 15.58863749263000"
      },
      "geometry": {
        "type": "Point",
        "coordinates": [
          -145.44342694434096,
          7.153685227544575
        ]
      }
    },
    {
      "type": "Feature",
      "properties": {
        "norad_id": 66664,
        "name": "SOYUZ-MS 28",
        "group": "stations",
        "lat": -30.308340556516967,
        "lon": 11.293580678591114,
        "alt_km": 419.79162132055626,
        "timestamp": "2025-12-08T10:52:01.736888+00:00",
        "meta_object_name": "SOYUZ-MS 28",
        "meta_object_id": "2025-275A",
        "meta_epoch": "2025-12-07T21:32:16.385568",
        "meta_mean_motion": 15.49404055,
        "meta_eccentricity": 0.0003425,
        "meta_inclination": 51.6302,
        "meta_ra_of_asc_node": 166.4547,
        "meta_arg_of_pericenter": 217.7386,
        "meta_mean_anomaly": 142.3363,
        "meta_ephemeris_type": 0,
        "meta_classification_type": "U",
        "meta_norad_cat_id": 66664,
        "meta_element_set_no": 999,
        "meta_rev_at_epoch": 128,
        "meta_bstar": 0.00022339025,
        "meta_mean_motion_dot": 0.00012051,
        "meta_mean_motion_ddot": 0,
        "tle_line1": "1 66664U 25275A   25341.89741187  .00012051  00000+0  22339-3 0  9999",
        "tle_line2": "2 66664  51.6302 166.4547 0003425 217.7386 142.3363 15.49404055  1288"
      },
      "geometry": {
        "type": "Point",
        "coordinates": [
          11.293580678591114,
          -30.308340556516967
        ]
      }
    },
    {
      "type": "Feature",
      "properties": {
        "norad_id": 66906,
        "name": "1998-067XS",
        "group": "stations",
        "lat": -40.19913543664806,
        "lon": 25.703247764191765,
        "alt_km": 418.50085879678227,
        "timestamp": "2025-12-08T10:52:01.736900+00:00",
        "meta_object_name": "1998-067XS",
        "meta_object_id": "1998-067XS",
        "meta_epoch": "2025-12-07T18:23:05.277120",
        "meta_mean_motion": 15.50202047,
        "meta_eccentricity": 0.00041027,
        "meta_inclination": 51.6298,
        "meta_ra_of_asc_node": 167.0779,
        "meta_arg_of_pericenter": 180.8323,
        "meta_mean_anomaly": 179.266,
        "meta_ephemeris_type": 0,
        "meta_classification_type": "U",
        "meta_norad_cat_id": 66906,
        "meta_element_set_no": 999,
        "meta_rev_at_epoch": 84,
        "meta_bstar": 0.00058960248,
        "meta_mean_motion_dot": 0.00033584,
        "meta_mean_motion_ddot": 0,
        "tle_line1": "1 66906U 98067XS  25341.76603330  .00033584  00000+0  58960-3 0  9993",
        "tle_line2": "2 66906  51.6298 167.0779 0004102 180.8323 179.2660 15.50202047   848"
      },
      "geometry": {
        "type": "Point",
        "coordinates": [
          25.703247764191765,
          -40.19913543664806
        ]
      }
    },
    {
      "type": "Feature",
      "properties": {
        "norad_id": 66907,
        "name": "1998-067XT",
        "group": "stations",
        "lat": -42.94695569292539,
        "lon": 31.177772550533483,
        "alt_km": 416.2969704762236,
        "timestamp": "2025-12-08T10:52:01.736911+00:00",
        "meta_object_name": "1998-067XT",
        "meta_object_id": "1998-067XT",
        "meta_epoch": "2025-12-07T21:27:41.929920",
        "meta_mean_motion": 15.50640627,
        "meta_eccentricity": 0.00050838,
        "meta_inclination": 51.63,
        "meta_ra_of_asc_node": 166.4336,
        "meta_arg_of_pericenter": 199.2143,
        "meta_mean_anomaly": 160.8655,
        "meta_ephemeris_type": 0,
        "meta_classification_type": "U",
        "meta_norad_cat_id": 66907,
        "meta_element_set_no": 999,
        "meta_rev_at_epoch": 86,
        "meta_bstar": 0.0010871959,
        "meta_mean_motion_dot": 0.00063549,
        "meta_mean_motion_ddot": 0,
        "tle_line1": "1 66907U 98067XT  25341.89423530  .00063549  00000+0  10872-2 0  9993",
        "tle_line2": "2 66907  51.6300 166.4336 0005083 199.2143 160.8655 15.50640627   860"
      },
      "geometry": {
        "type": "Point",
        "coordinates": [
          31.177772550533483,
          -42.94695569292539
        ]
      }
    }
  ]
}